{
  "type": "FeatureCollection",
  "features": [
    {
      "type": "Feature",
      "properties": {
        "norad_id": 29816,
        "name": "FENGYUN 1C DEB",
        "group": "fengyun-1c-debris",
        "lat": -25.434870544944523,
        "lon": -151.18655124135444,
        "alt_km": 897.0429819825613,
        "timestamp": "2025-12-10T14:53:37.364150+00:00",
        "meta_object_name": "FENGYUN 1C DEB",
        "meta_object_id": "1999-025DJ",
        "meta_epoch": "2025-12-10T03:57:24.704064",
        "meta_mean_motion": 14.44252892,
        "meta_eccentricity": 0.02377396,
        "meta_inclination": 98.9928,
        "meta_ra_of_asc_node": 204.0122,
        "meta_arg_of_pericenter": 184.7969,
        "meta_mean_anomaly": 300.2067,
        "meta_ephemeris_type": 0,
        "meta_classification_type": "U",
        "meta_norad_cat_id": 29816,
        "meta_element_set_no": 999,
        "meta_rev_at_epoch": 98150,
        "meta_bstar": 0.0013644314,
        "meta_mean_motion_dot": 6.573e-05,
        "meta_mean_motion_ddot": 0,
        "tle_line1": "1 29816U 99025DJ  25344.16486926  .00006573  00000+0  13644-2 0  9991",
        "tle_line2": "2 29816  98.9928 204.0122 0237739 184.7969 300.2067 14.44252892981501"
      },
      "geometry": {
        "type": "Point",
        "coordinates": [
          -151.18655124135444,
          -25.434870544944523
        ]
      }
    },
    {
      "type": "Feature",
      "properties": {
        "norad_id": 29817,
        "name": "FENGYUN 1C DEB",
        "group": "fengyun-1c-debris",
        "lat": 37.69416121593665,
        "lon": 160.59089205158224,
        "alt_km": 846.5905928182283,
        "timestamp": "2025-12-10T14:53:37.364159+00:00",
        "meta_object_name": "FENGYUN 1C DEB",
        "meta_object_id": "1999-025DK",
        "meta_epoch": "2025-12-10T06:03:22.084416",
        "meta_mean_motion": 14.14247361,
        "meta_eccentricity": 0.00124183,
        "meta_inclination": 98.5574,
        "meta_ra_of_asc_node": 333.5567,
        "meta_arg_of_pericenter": 22.4596,
        "meta_mean_anomaly": 45.4129,
        "meta_ephemeris_type": 0,
        "meta_classification_type": "U",
        "meta_norad_cat_id": 29817,
        "meta_element_set_no": 999,
        "meta_rev_at_epoch": 97360,
        "meta_bstar": 0.0004965518,
        "meta_mean_motion_dot": 9.07e-06,
        "meta_mean_motion_ddot": 0,
        "tle_line1": "1 29817U 99025DK  25344.25233894  .00000907  00000+0  49655-3 0  9993",
        "tle_line2": "2 29817  98.5574 333.5567 0012418  22.4596  45.4129 14.14247361973606"
      },
      "geometry": {
        "type": "Point",
        "coordinates": [
          160.59089205158224,
          37.69416121593665
        ]
      }
    },
    {
      "type": "Feature",
      "properties": {
        "norad_id": 29818,
        "name": "FENGYUN 1C DEB",
        "group": "fengyun-1c-debris",
        "lat": -49.641100795190226,
        "lon": -127.576453584562,
        "alt_km": 872.6777204092341,
        "timestamp": "2025-12-10T14:53:37.364168+00:00",
        "meta_object_name": "FENGYUN 1C DEB",
        "meta_object_id": "1999-025DL",
        "meta_epoch": "2025-12-10T05:24:39.297312",
        "meta_mean_motion": 14.04498852,
        "meta_eccentricity": 0.01154145,
        "meta_inclination": 98.7215,
        "meta_ra_of_asc_node": 221.6377,
        "meta_arg_of_pericenter": 32.8822,
        "meta_mean_anomaly": 81.3919,
        "meta_ephemeris_type": 0,
        "meta_classification_type": "U",
        "meta_norad_cat_id": 29818,
        "meta_element_set_no": 999,
        "meta_rev_at_epoch": 96774,
        "meta_bstar": 0.00022921052,
        "meta_mean_motion_dot": 3.46e-06,
        "meta_mean_motion_ddot": 0,
        "tle_line1": "1 29818U 99025DL  25344.22545483  .00000346  00000+0  22921-3 0  9995",
        "tle_line2": "2 29818  98.7215 221.6377 0115414  32.8822  81.3919 14.04498852967740"
      },
      "geometry": {
        "type": "Point",
        "coordinates": [
          -127.576453584562,
          -49.641100795190226
        ]
      }
    },
    {
      "type": "Feature",
      "properties": {
        "norad_id": 29819,
        "name": "FENGYUN 1C DEB",
        "group": "fengyun-1c-debris",
        "lat": 77.52774688307841,
        "lon": -75.56071664118392,
        "alt_km": 741.1126293428606,
        "timestamp": "2025-12-10T14:53:37.364177+00:00",
        "meta_object_name": "FENGYUN 1C DEB",
        "meta_object_id": "1999-025DM",
        "meta_epoch": "2025-12-10T04:31:21.254016",
        "meta_mean_motion": 14.02189992,
        "meta_eccentricity": 0.01915012,
        "meta_inclination": 98.7314,
        "meta_ra_of_asc_node": 328.0357,
        "meta_arg_of_pericenter": 74.1877,
        "meta_mean_anomaly": 346.4496,
        "meta_ephemeris_type": 0,
        "meta_classification_type": "U",
        "meta_norad_cat_id": 29819,
        "meta_element_set_no": 999,
        "meta_rev_at_epoch": 96584,
        "meta_bstar": 0.00059555852,
        "meta_mean_motion_dot": 1.03e-05,
        "meta_mean_motion_ddot": 0,
        "tle_line1": "1 29819U 99025DM  25344.18844044  .00001030  00000+0  59556-3 0  9991",
        "tle_line2": "2 29819  98.7314 328.0357 0191501  74.1877 346.4496 14.02189992965845"
      },
      "geometry": {
        "type": "Point",
        "coordinates": [
          -75.56071664118392,
          77.52774688307841
        ]
      }
    },
    {
      "type": "Feature",
      "properties": {
        "norad_id": 29820,
        "name": "FENGYUN 1C DEB",
        "group": "fengyun-1c-debris",
        "lat": 55.53358213724282,
        "lon": -21.354307313184815,
        "alt_km": 931.3454216741911,
        "timestamp": "2025-12-10T14:53:37.364186+00:00",
        "meta_object_name": "FENGYUN 1C DEB",
        "meta_object_id": "1999-025DN",
        "meta_epoch": "2025-12-10T06:21:48.255840",
        "meta_mean_motion": 14.02597863,
        "meta_eccentricity": 0.00719698,
        "meta_inclination": 98.8316,
        "meta_ra_of_asc_node": 351.3919,
        "meta_arg_of_pericenter": 244.6948,
        "meta_mean_anomaly": 178.1129,
        "meta_ephemeris_type": 0,
        "meta_classification_type": "U",
        "meta_norad_cat_id": 29820,
        "meta_element_set_no": 999,
        "meta_rev_at_epoch": 96525,
        "meta_bstar": 0.00077476109,
        "meta_mean_motion_dot": 1.178e-05,
        "meta_mean_motion_ddot": 0,
        "tle_line1": "1 29820U 99025DN  25344.26514185  .00001178  00000+0  77476-3 0  9996",
        "tle_line2": "2 29820  98.8316 351.3919 0071969 244.6948 178.1129 14.02597863965259"
      },
      "geometry": {
        "type": "Point",
        "coordinates": [
          -21.354307313184815,
          55.53358213724282
        ]
      }
    },
    {
      "type": "Feature",
      "properties": {
        "norad_id": 29821,
        "name": "FENGYUN 1C DEB",
        "group": "fengyun-1c-debris",
        "lat": 36.32895952557027,
        "lon": 33.03777921704453,
        "alt_km": 841.7441060346337,
        "timestamp": "2025-12-10T14:53:37.364196+00:00",
        "meta_object_name": "FENGYUN 1C DEB",
        "meta_object_id": "1999-025DP",
        "meta_epoch": "2025-12-10T02:56:40.331328",
        "meta_mean_motion": 14.11048117,
        "meta_eccentricity": 0.03763318,
        "meta_inclination": 98.8737,
        "meta_ra_of_asc_node": 39.1413,
        "meta_arg_of_pericenter": 128.0889,
        "meta_mean_anomaly": 265.4297,
        "meta_ephemeris_type": 0,
        "meta_classification_type": "U",
        "meta_norad_cat_id": 29821,
        "meta_element_set_no": 999,
        "meta_rev_at_epoch": 96474,
        "meta_bstar": 0.00089691706,
        "meta_mean_motion_dot": 3.099e-05,
        "meta_mean_motion_ddot": 0,
        "tle_line1": "1 29821U 99025DP  25344.12268902  .00003099  00000+0  89692-3 0  9992",
        "tle_line2": "2 29821  98.8737  39.1413 0376331 128.0889 265.4297 14.11048117964749"
      },
      "geometry": {
        "type": "Point",
        "coordinates": [
          33.03777921704453,
          36.32895952557027
        ]
      }
    },
    {
      "type": "Feature",
      "properties": {
        "norad_id": 29827,
        "name": "FENGYUN 1C DEB",
        "group": "fengyun-1c-debris",
        "lat": -55.83833139420295,
        "lon": -11.23957450608335,
        "alt_km": 810.3165132780941,
        "timestamp": "2025-12-10T14:53:37.364205+00:00",
        "meta_object_name": "FENGYUN 1C DEB",
        "meta_object_id": "1999-025DV",
        "meta_epoch": "2025-12-08T22:52:37.934112",
        "meta_mean_motion": 14.21677819,
        "meta_eccentricity": 0.0025205,
        "meta_inclination": 98.6017,
        "meta_ra_of_asc_node": 334.2475,
        "meta_arg_of_pericenter": 333.6576,
        "meta_mean_anomaly": 80.9572,
        "meta_ephemeris_type": 0,
        "meta_classification_type": "U",
        "meta_norad_cat_id": 29827,
        "meta_element_set_no": 999,
        "meta_rev_at_epoch": 97809,
        "meta_bstar": 0.00051498,
        "meta_mean_motion_dot": 1.091e-05,
        "meta_mean_motion_ddot": 0,
        "tle_line1": "1 29827U 99025DV  25342.95321683  .00001091  00000+0  51498-3 0  9996",
        "tle_line2": "2 29827  98.6017 334.2475 0025205 333.6576  80.9572 14.21677819978096"
      },
      "geometry": {
        "type": "Point",
        "coordinates": [
          -11.23957450608335,
          -55.83833139420295
        ]
      }
    }
  ]
}